longitude,latitude,name,address_phone_store
-102.350751,31.890947,H-E-B Odessa,"3801 E. 42nd St., Odessa, TX 79762, Phone: +1-432-362-4500 Pharmacy +1-432-362-4555, Corporate #387, Fuel"
-102.126482,32.01832,H-E-B Midland,"3325 West Wadley Ave., Midland, TX 79707, Phone: +1-432-697-1471 Pharmacy +1-432-697-1484, Corporate #382, Fuel"
-101.472421,32.2346151,H-E-B Big Spring,"2000 S. Gregg St., Big Spring, TX 79720, Phone: +1-432-263-3000 Pharmacy +1-432-263-3020, Corporate #51, Fuel"
-98.2254419,32.2097863,H-E-B Stephenville,"2150 W. Washington St., Stephenville, TX 76401, Phone: +1-254-965-7063 Pharmacy +1-254-965-2267, Corporate #6, Fuel, Car Wash"
-100.478923,31.4441929,H-E-B San Angelo,"3301 Sherwood Way, San Angelo, TX 76901, Phone: +1-325-942-9044 Pharmacy +1-325-942-0454, Corporate #52, Fuel, Car Wash"
-99.7578827,32.4333573,H-E-B Abilene,"1345 Barrow, Abilene, TX 79605, Phone +1-325-690-5000 Pharmacy +1-325-690-5011, Corporate #70, Fuel, Car Wash"
-97.6657241,27.7889597,H-E-B Robstown,"308 E. Main Ave., Robstown, TX 78380, Phone: +1-361-387-4507, Corporate #22"
-97.5847514,27.8460476,H-E-B Corpus Christi 05,"11100 Leopard, Corpus Christi, TX 78410, Phone: +1-361-241-4228 Pharmacy +1-361-241-0378, Corporate #184, Fuel, Car Wash"
-97.281593,27.665327,H-E-B Plus! Corpus Christi 18,"1145 Waldron Road, Corpus Christi, TX 78418, Phone: +1-361-939-5500 Pharmacy +1-361-939-5555, Corporate #57, Fuel, Car Wash"
-97.388622,27.685189,H-E-B Plus! Corpus Christi 04,"5313 Saratoga Blvd., Corpus Christi, TX 78413, Phone: +1-361-980-0993 Pharmacy +1-361-993-1351, Corporate #69"
-97.371563,27.708017,H-E-B Corpus Christi 13,"5425 South Padre Island Dr., Corpus Christi, TX 78411, Phone: +1-361-991-2695 Pharmacy +1-361-992-6996, Corporate #270"
-97.4059058,27.7118173,H-E-B Corpus Christi 12,"5801 Weber Road, Corpus Christi, TX 78413, Phone: +1-361-854-1911 Pharmacy +1-361-854-8441, Corporate #139, Fuel"
-97.3708753,27.7300137,H-E-B Corpus Christi 06,"4320 S. Alameda St., Corpus Christi, TX 78412, Phone: +1-361-993-4840 Pharmacy +1-361-993-8515, Corporate #210"
-97.4052991,27.7387364,H-E-B Corpus Christi 01,"4444 Kostoryz Rd., Corpus Christi, TX 78415, Phone: +1-361-853-9831 Pharmacy +1-361-855-6121, Corporate #643, Fuel, Car Wash"
-97.3915916,27.7567402,H-E-B Corpus Christi 07,"3133 S. Alameda St., Corpus Christi, TX 78404, Phone: +1-361-855-3031 Pharmacy +1-361-852-1696, Corporate #413, Fuel, Car Wash"
-97.4217549,27.7667093,H-E-B Corpus Christi 02,"3033 S. Port Ave., Corpus Christi, TX 78405, Phone: +1-361-883-6002 Pharmacy +1-361-883-0875, Corporate #462, Fuel"
-97.4279491,27.7979226,H-E-B Corpus Christi 03,"3500 Leopard, Corpus Christi, TX 78408, Phone: +1-361-882-9864 Pharmacy +1-361-883-7196, Corporate #253"
-97.8637113,27.5163261,H-E-B Kingsville,"409 E Kleberg Ave., Kingsville, TX 78363, Phone: +1-361-595-0243 Pharmacy +1-361-595-5641, Corporate #401, Fuel"
-98.3246781,26.2137284,H-E-B Mission 01,"820 S. Conway, Mission, TX 78572, Phone: +1-956-581-2154 Pharmacy +1-956-581-2173, Corporate #226, Fuel"
-98.3222072,26.2283723,H-E-B Mission 02,"200 East Griffin Pkwy., Mission, TX 78572, Phone: +1-956-424-7908 Pharmacy +1-956-424-7920, Corporate #571, Fuel"
-98.286282,26.197293,H-E-B Plus! Mission 03,"2409 East Expressway 83, Mission, TX 78572, Phone: +1-956-205-6700 Pharmacy +1-956-205-6755, Corporate #94, Fuel, Car Wash"
-98.2587527,26.2181921,H-E-B McAllen 01,"3601 Pecan, Mcallen, TX 78501, Phone: +1-956-971-9881 Pharmacy +1-956-971-9131, Corporate #334, Fuel"
-98.2237894,26.2326157,H-E-B McAllen 04,"3200 N. 10th Street, Mcallen, TX 78501, Phone: +1-956-631-7138 Pharmacy +1-956-631-6148, Corporate #212"
-98.217382,26.2678515,H-E-B McAllen 02,"901 Trenton Rd, Mcallen, TX 78501, Phone: +1-956-618-0073 Pharmacy +1-956-618-1889, Corporate #590, Fuel"
-98.1959007,26.2893661,H-E-B Edinburg 02,"2700 W. Freddy Gonzalez Dr., Edinburg, TX 78539, Phone: +1-956-383-4083 Pharmacy +1-956-383-4165, Corporate #431, Fuel"
-98.1634436,26.289846,H-E-B Edinburg 01,"1212 S. Closner, Edinburg, TX 78539, Phone: +1-956-381-9136 Pharmacy +1-956-380-6219, Corporate #172, Fuel, Car Wash"
-98.186989,26.179553,H-E-B Plus! Pharr,"1300 South Cage Blvd., Pharr, TX 78577, Phone: +1-956-781-6121 Pharmacy +1-956-781-6626, Corporate #642, Fuel, Car Wash"
-98.164747,26.20335,H-E-B Plus! San Juan,"901 W. Expy. 83, San Juan, TX 78589, Phone: +1-956-781-0554 Pharmacy +1-956-783-1275, Corporate #38, Fuel, Car Wash"
-97.2269301,26.0712549,H-E-B Port Isabel,"1679 State Highway 100, Port Isabel, TX 78578, Phone: +1-956-943-1171, Corporate #383, Fuel"
-98.1249,26.190841,H-E-B Alamo,"1211 E Frontage Rd., Alamo, TX 78516, Phone: +1-956-702-2289 Pharmacy +1-956-702-7550, Corporate #421, Fuel"
-98.0551392,26.168729,H-E-B Donna,"813 Miller Ave., Donna, TX 78537, Phone: +1-956-464-3471, Corporate #9"
-97.4651218,25.9054015,H-E-B Brownsville 04,"2950 Southmost Road, Brownsville, TX 78521, Phone: +1-956-541-8406 Pharmacy +1-956-541-8602, Corporate #332, Fuel"
-97.4886931,25.9193934,H-E-B Brownsville 02,"2250 Boca Chica Blvd., Brownsville, TX 78520, Phone: +1-956-541-1251 Pharmacy +1-956-541-0384, Corporate #489, Fuel, Car Wash"
-97.5098138,25.9262122,H-E-B Brownsville 03,"1628 Central Blvd., Brownsville, TX 78520, Phone: +1-956-541-4816 Pharmacy +1-956-542-0934, Corporate #263, Fuel"
-97.4890941,25.9500511,H-E-B Plus! Brownsville 05,"2155 Paredes Line Rd., Brownsville, TX 78526, Phone: +1-956-574-9701 Pharmacy +1-956-574-9707, Corporate #446, Fuel, Car Wash"
-97.7861077,26.480642,H-E-B Raymondville,"405 W Hidalgo Ave., Raymondville, TX 78580, Phone: +1-956-689-6556, Corporate #429, Fuel"
-97.992775,26.293434,H-E-B Elsa,"512 E. Edinburg Ave., Elsa, TX 78543, Phone: +1-956-262-1501 Pharmacy +1-956-262-9719, Corporate #677, Fuel"
-98.0049717,26.1635743,H-E-B Weslaco 02,"310 N. Westgate Dr., Weslaco, TX 78596, Phone: +1-956-447-5901 Pharmacy +1-956-447-5912, Corporate #485, Fuel, Car Wash"
-97.9894267,26.1712804,H-E-B Weslaco 01,"1004 N. Texas, Weslaco, TX 78596, Phone: +1-956-968-9533 Pharmacy +1-956-968-8825, Corporate #231, Fuel"
-97.9128691,26.1537408,H-E-B Mercedes,"209 N Texas Ave, Mercedes, TX 78570, Phone: +1-956-514-0003, Corporate #370, Fuel"
-97.636529,26.145441,H-E-B San Benito,"1095 West Business Hwy. 77, San Benito, TX 78586, Phone: +1-956-399-0241 Pharmacy +1-956-399-5233, Corporate #626, Fuel"
-97.6773814,26.2042782,H-E-B Harlingen 03,"1103 Morgan, Harlingen, TX 78550, Phone: +1-956-428-6365 Pharmacy +1-956-440-1787, Corporate #168, Fuel"
-97.7136956,26.1835644,H-E-B Harlingen 02,"613 S. Expwy 83, Harlingen, TX 78550, Phone: +1-956-425-7491 Pharmacy +1-956-428-9647, Corporate #291, Fuel, Car Wash"
-97.681524,26.181587,H-E-B Harlingen 04,"1213 S. Commerce, Harlingen, TX 78550, Phone: +1-956-425-6677 Pharmacy +1-956-425-4423, Corporate #136, Fuel"
-99.7829926,29.2095772,H-E-B Uvalde,"201 E. Main St., Uvalde, TX 78801, Phone: +1-830-278-3352 Pharmacy +1-830-278-2581, Corporate #441, Fuel, Car Wash"
-100.899709,29.3662618,H-E-B Del Rio 02,"200 VETERAN'S BLVD, Del Rio, TX 78840, Phone: +1-830-774-5666 Pharmacy +1-830-774-4579, Corporate #418, Fuel"
-100.897351,29.357997,H-E-B Del Rio 01,"500 Pecan St., Del Rio, TX 78840, Phone: +1-830-774-2596, Corporate #88"
-100.484826,28.710466,H-E-B Eagle Pass 02,"2135 E. Main St., Eagle Pass, TX 78852, Phone: +1-830-773-0345 Pharmacy +1-830-773-0420, Corporate #419, Fuel, Car Wash"
-98.0629429,27.7525204,H-E-B Alice,"1115 E Main St, Alice, TX 78332, Phone: +1-361-668-6633 Pharmacy +1-361-664-1344, Corporate #223, Fuel, Car Wash"
-99.1149,28.89495,H-E-B Pearsall,"225 South IH 35, Pearsall, TX 78061, Phone: +1-830-334-3374 Pharmacy +1-830-334-3237, Corporate #620, Fuel"
-98.799304,26.370104,H-E-B Plus! Rio Grande City,"4031 E. US Hwy. 83, Rio Grande City, TX 78582, Phone: +1-956-488-8439 Pharmacy +1-956-487-0905, Corporate #13, Fuel"
-98.1449887,27.2208441,H-E-B Falfurrias,"700 South St Mary, Falfurrias, TX 78355, Phone: +1-361-325-3604 +1-361-325-2910, Corporate #200"
-99.8290415,28.6819851,H-E-B Crystal City,"514 E. Zavala, Crystal City, TX 78839, Phone: +1-830-374-2305, Corporate #117"
-99.850858,28.536527,H-E-B Carrizo Springs,"2030 N. 1st. Street, Carrizo Springs, TX 78834, Phone: +1-830-876-3521 Pharmacy +1-830-876-9109, Corporate #671, Fuel, Car Wash"
-99.4766093,27.609754,H-E-B Plus! Laredo 08,"1911 E. Bob Bullock,  Laredo, TX 78045, Phone: +1-956-764-5000 Pharmacy +1-956-764-5050, Corporate #95, Fuel, Car Wash"
-99.4720747,27.5761422,H-E-B Laredo 07,"7811 McPherson Rd, Laredo, TX 78045, Phone: +1-956-712-2459 Pharmacy +1-956-712-8053, Corporate #449, Fuel"
-99.4760072,27.4768426,H-E-B Laredo 06,"2314 S Zapata Hwy, Laredo, TX 78043, Phone: +1-956-795-0207 Pharmacy +1-956-795-0700, Corporate #586, Fuel, Car Wash"
-99.4973712,27.5683361,H-E-B Laredo 04,"210 West Del Mar Blvd., Laredo, TX 78041, Phone: +1-956-712-3005 Pharmacy +1-956-712-3251, Corporate #570"
-99.4833317,27.5060729,H-E-B Laredo 02,"1301 Guadalupe St, Laredo, TX 78040, Phone: +1-956-724-1147 Pharmacy +1-956-724-1126, Corporate #207"
-99.4710902,27.5317514,H-E-B Laredo 05,"2310 Saunders, Laredo, TX 78041, Phone: +1-956-724-1128 Pharmacy +1-956-724-1141, Corporate #186, Fuel"
-99.5012068,27.5428024,H-E-B Laredo 03,"4801 San Dario, Laredo, TX 78041, Phone: +1-956-725-3061 Pharmacy +1-956-725-0171, Corporate #255, Fuel"
-99.1353531,29.3473096,H-E-B Hondo,"609 19th St., Hondo, TX 78861, Phone: +1-830-426-4349 Pharmacy +1-830-426-5312, Corporate #424, Fuel, Car Wash"
-97.9437455,29.5704051,H-E-B Seguin,"1340 E. Court, Seguin, TX 78155, Phone: +1-830-379-8384 Pharmacy +1-830-379-0160, Corporate #716, Fuel"
-98.79048,29.23143,H-E-B Plus! Lytle,"19337 McDonald Street, Lytle, TX 78052, Phone: +1-830-772-5021 Pharmacy +1-830-772-5748, Corporate #19, Fuel, Car Wash"
-98.6341386,29.6648971,H-E-B Leon Springs,"24165 IH-10 West, San Antonio, TX 78257, Phone: +1-210-687-1007 Pharmacy +1-210-687-1072, Corporate #566, Fuel"
-98.2775158,29.5973126,H-E-B Plus! Schertz,"17460 IH-35 N, Schertz, TX 78154, Phone: +1-210-651-5105 Pharmacy +1-210-651-4148, Corporate #415, Fuel, Car Wash"
-98.3119412,29.5459332,H-E-B San Antonio 15,"910 Kitty Hawk, Universal City, TX 78148, Phone: +1-210-945-2102 Pharmacy +1-210-945-2120, Corporate #555, Fuel"
-98.456866,29.640834,H-E-B Plus! San Antonio 45,"20935 US Hwy. 281 N., San Antonio, TX 78258, Phone: +1-210-491-2400 Pharmacy +1-210-491-2450, Corporate #108"
-98.664001,29.553942,H-E-B Plus! San Antonio 32,"9238 North Loop 1604 West, San Antonio, TX 78249, Phone: +1-210-682-0165 Pharmacy +1-210-682-3419, Corporate #623, Fuel, Car Wash"
-98.7037725,29.4339027,H-E-B Plus! San Antonio 41,"10718 Potranco Rd., San Antonio, TX 78251, Phone: +1-210-681-2250 Pharmacy +1-210-681-2301, Corporate #85, Fuel, Car Wash"
-98.4670285,29.6069253,H-E-B San Antonio 12,"18140 San Pedro Ave., San Antonio, TX 78232, Phone: +1-210-490-4931 Pharmacy +1-210-490-5593, Corporate #397"
-98.51035,29.60661,H-E-B Plus! San Antonio 39,"1150 N. Loop 1604 W., San Antonio, TX 78248, Phone: +1-210-408-1641 Pharmacy +1-210-408-8145, Corporate #463"
-98.66426,29.4852548,H-E-B San Antonio 37,"9255 FM 471 West, San Antonio, TX 78251, Phone: +1-210-681-5071 Pharmacy +1-210-680-2958, Corporate #235, Fuel, Car Wash"
-98.643554,29.519292,H-E-B San Antonio 25,"7951 Guilbeau Rd, San Antonio, TX 78250, Phone: +1-210-523-0296 Pharmacy +1-210-523-0481, Corporate #224, Fuel, Car Wash"
-98.588345,29.562156,H-E-B San Antonio 17,"12777 W IH 10, San Antonio, TX 78230, Phone: +1-210-558-3981 Pharmacy +1-210-558-3027, Corporate #395"
-98.4393827,29.5769275,H-E-B San Antonio 20,"2929 Thousand Oaks Dr., San Antonio, TX 78247, Phone: +1-210-491-9508 Pharmacy +1-210-491-9976, Corporate #398"
-98.636859,29.379945,H-E-B Valley Hi,"302 VALLEY HI DRIVE, SAN ANTONIO, TX 78227-4602, Phone: +1-210-674-3710 Pharmacy +1-210-673-1760, Corporate #678, Fuel, Car Wash"
-98.6538734,29.4188736,H-E-B Plus! San Antonio 27,"8219 Marbach Rd, San Antonio, TX 78227, Phone: +1-210-673-4900 Pharmacy +1-210-673-3230, Corporate #613, Fuel, Car Wash"
-98.4765346,29.5780092,H-E-B San Antonio 35,"15000 San Pedro, San Antonio, TX 78232, Phone: +1-210-494-3501 Pharmacy +1-210-494-3203, Corporate #164"
-98.4074875,29.549061,H-E-B San Antonio 44,"12018 Perrin Beitel Rd., San Antonio, TX 78217, Phone: +1-210-655-9071 Pharmacy +1-210-655-9542, Corporate #568"
-98.3700568,29.5093386,H-E-B San Antonio 34,"6030 Montgomery Dr., San Antonio, TX 78239, Phone: +1-210-657-2944 Pharmacy +1-210-657-0322, Corporate #384, Fuel"
-98.603131,29.526481,H-E-B San Antonio 23,"5910 Babcock, San Antonio, TX 78240, Phone: +1-210-641-6403 Pharmacy +1-210-641-6405, Corporate #618, Fuel, Car Wash"
-98.3592021,29.4793978,H-E-B San Antonio 19,"6580 FM 78, San Antonio, TX 78244, Phone: +1-210-666-2022 Pharmacy +1-210-666-1212, Corporate #294, Fuel, Car Wash"
-98.560407,29.531224,H-E-B San Antonio 29,"9900 Wurzbach Rd, San Antonio, TX 78230, Phone: +1-210-696-0794 Pharmacy +1-210-696-1073, Corporate #480, Fuel"
-98.53371,29.553056,H-E-B San Antonio 31 - Alon Market,"8503 NW Military Hwy., San Antonio, TX 78231, Phone: +1-210-479-4300 Pharmacy +1-210-479-4350, Corporate #102"
-98.5108069,29.5469212,H-E-B San Antonio 38,"11551 West Ave, San Antonio, TX 78213, Phone: +1-210-340-7976 Pharmacy +1-210-340-7786, Corporate #195"
-98.5948321,29.4819314,H-E-B San Antonio 30,"5601 Bandera Road, San Antonio, TX 78238, Phone: +1-210-647-2700 Pharmacy +1-210-647-2709, Corporate #262, Fuel"
-98.5248454,29.5150857,H-E-B San Antonio 24,"6000 West Ave, San Antonio, TX 78213, Phone: +1-210-341-7289 Pharmacy +1-210-341-3875, Corporate #389, Fuel"
-98.4322235,29.4943886,H-E-B San Antonio 18,"1520 Austin Hwy, San Antonio, TX 78218, Phone: +1-210-828-5076 Pharmacy +1-210-828-6871, Corporate #585, Fuel"
-98.433711,29.353648,H-E-B San Antonio 21,"3323 SE Military Dr., San Antonio, TX 78223, Phone: +1-210-333-1441 Pharmacy +1-210-333-1031, Corporate #444, Fuel, Car Wash"
-98.4583457,29.5075333,H-E-B San Antonio 01,"1955 Nacogdoches Rd., San Antonio, TX 78209, Phone: +1-210-930-3707 Pharmacy +1-210-930-3454, Corporate #372"
-98.4064089,29.4149226,H-E-B San Antonio 22,"1015 S W.W. White Road, San Antonio, TX 78220, Phone: +1-210-333-0020 Pharmacy +1-210-337-7549, Corporate #106, Fuel"
-98.5001294,29.5035084,H-E-B San Antonio 14,"6839 San Pedro, San Antonio, TX 78216, Phone: +1-210-342-2745 Pharmacy +1-210-979-8660, Corporate #178"
-98.5330758,29.3602335,H-E-B Plus! San Antonio 36,"6818 South Zarzamora, San Antonio, TX 78224, Phone: +1-210-927-5334 Pharmacy +1-210-927-4596, Corporate #84, Fuel, Car Wash"
-98.468514,29.4979467,H-E-B San Antonio 43 - Lincoln Heights,"999 East Basse Rd., San Antonio, TX 78209, Phone: +1-210-822-0156 Pharmacy +1-210-822-0270, Corporate #567"
-98.5024899,29.3577781,H-E-B San Antonio 09,"735 SW Military Dr., San Antonio, TX 78221, Phone: +1-210-927-6825 Pharmacy +1-210-927-6875, Corporate #427, Fuel, Car Wash"
-98.5530269,29.4173584,H-E-B San Antonio 16,"721 Castroville Rd., San Antonio, TX 78237, Phone: +1-210-432-0949 Pharmacy +1-210-436-6465, Corporate #205, Fuel"
-98.458268,29.380308,H-E-B Plus! San Antonio 13 - McCreless Market,"4100 S. New Braunfels, San Antonio, TX 78223, Phone: +1-210-531-3100 Pharmacy +1-210-531-3160, Corporate #26, Fuel, Car Wash"
-98.542334,29.4459357,H-E-B San Antonio 10,"2130 Culebra, San Antonio, TX 78228, Phone: +1-210-737-1027 Pharmacy +1-210-737-1040, Corporate #189, Fuel, Car Wash"
-98.5255714,29.4654954,H-E-B San Antonio 05,"2118 Fredericksburg Rd., San Antonio, TX 78201, Phone: +1-210-737-2047 Pharmacy +1-210-737-2040, Corporate #556, Fuel"
-98.496892,29.470051,H-E-B San Antonio 08,"300 W. Olmos Dr., San Antonio, TX 78212, Phone: +1-210-829-7373 Pharmacy +1-210-829-1705, Corporate #385, Fuel"
-98.4626116,29.4246781,H-E-B San Antonio 07,"415 N. New Braunfels, San Antonio, TX 78202, Phone: +1-210-226-8531 Pharmacy +1-210-226-8642, Corporate #211"
-98.5242917,29.4283159,H-E-B San Antonio 03,"108 N. Rosillo St., San Antonio, TX 78207, Phone: +1-210-227-0447 Pharmacy +1-210-227-0211, Corporate #466, Fuel"
-98.5147505,29.3977723,H-E-B San Antonio 04,"1601 Nogalitos St, San Antonio, TX 78204, Phone: +1-210-212-2600 Pharmacy +1-210-229-1825, Corporate #699"
-98.1571306,29.1424951,H-E-B Floresville,"925 10th St, Floresville, TX 78114, Phone: +1-830-393-8105 Pharmacy +1-830-393-8098, Corporate #25, Fuel, Car Wash"
-98.4866328,28.9561078,H-E-B Pleasanton,"219 W Oaklawn Rd, Pleasanton, TX 78064, Phone +1-830-281-8172 Pharmacy +1-830-281-8190, Corporate #411, Fuel, Car Wash"
-97.8229774,28.0909919,H-E-B Mathis,"601 E. San Patricio, Mathis, TX 78368, Phone: +1-361-547-3233, Corporate #160"
-97.209394,27.882457,H-E-B Ingleside,"2616 W. Hwy. 361, Ingleside, TX 78362, Phone: +1-361-776-7510, Corporate #171, Fuel"
-97.3170348,27.887096,H-E-B Portland,"1600 Wildcat Dr., Portland, TX 78374, Phone: +1-361-643-1511 Pharmacy +1-361-643-1514, Corporate #488, Fuel"
-97.517041,28.0358333,H-E-B Sinton,"106 S. San Patricio, Sinton, TX 78387, Phone: +1-361-364-3270, Corporate #115"
-97.1461129,27.9014614,H-E-B Aransas Pass,"101 E Goodnight Ave., Aransas Pass, TX 78336, Phone: +1-361-758-5900 Pharmacy +1-361-758-9565, Corporate #333"
-97.8599,28.815844,H-E-B Kenedy,"107 N. SUNSET STRIP, KENEDY, TX 78119, Phone: +1-830-583-3435 Pharmacy +1-830-583-9155, Corporate #693, Fuel, Car Wash"
-97.7466185,28.4008151,H-E-B Beeville,"100 E. Houston St., Beeville, TX 78102, Phone: +1-361-358-4553 Pharmacy +1-361-358-3737, Corporate #412, Fuel, Car Wash"
-97.450972,29.518209,H-E-B Gonzales (Pantry Foods),"1841 Church St., Gonzales, TX 78629, Phone: +1-830-672-7595 Pharmacy +1-830-672-6590, Corporate #641, Fuel"
-97.0441003,28.0386818,H-E-B Rockport,"1409 Hwy 35 North Business, Rockport, TX 78382, Phone: +1-361-729-8230 Pharmacy +1-361-729-0530, Corporate #562, Fuel"
-97.276155,28.303669,H-E-B Refugio,"206 S. Alamo, Refugio, TX 78377, Phone: +1-361-526-5381, Corporate #234, Fuel"
-97.1496505,29.2931645,H-E-B Yoakum (Pantry Foods),"201 West Gonzales St., Yoakum, TX 77995, Phone: +1-361-293-5281, Corporate #355, Fuel"
-96.637664,28.626822,H-E-B Port Lavaca,"101 Calhoun Plz., Port Lavaca, TX 77979, Phone: +1-361-552-7523 Pharmacy +1-361-552-4563, Corporate #434, Fuel"
-96.9954464,28.852148,H-E-B Plus! Victoria 03,"6106 N. Navarro St., Victoria, TX 77904, Phone: +1-361-578-9891 Pharmacy +1-361-572-8575, Corporate #92, Fuel, Car Wash"
-96.9887362,28.8053989,H-E-B Victoria 02,"1505 East Rio Grande, Victoria, TX 77901, Phone: +1-361-572-8221 Pharmacy +1-361-572-8001, Corporate #554, Fuel, Car Wash"
-93.7464912,30.1155135,H-E-B Orange (Pantry Foods),"2424 16th St., Orange, TX 77630, Phone: +1-409-883-5105, Corporate #35,"
-96.6478062,28.9793693,H-E-B Edna (Pantry Foods),"301 N Wells St., Edna, TX 77957, Phone: +1-361-782-5218 Pharmacy: +1-361-781-0789,Corporate #351"
-93.9226595,29.9290692,H-E-B Groves (Pantry Foods),"5000 32nd Str., Groves, TX 77619, Phone: +1-409-962-0142, Corporate #53,"
-93.923543,29.9051703,H-E-B Port Arthur (Pantry Foods),"3401 Gulfway Dr., Port Arthur, TX 77642, Phone: +1-409-985-9723, Corporate #86"
-93.974717,29.963659,H-E-B Mid County,"4800 B Hwy 365, Port Arthur, TX 77642, Phone: +1-409-722-1369 Pharmacy +1-409-722-4066, Corporate #589, Fuel, Car Wash"
-94.2006471,30.2644086,H-E-B Lumberton (Pantry Foods),"819 N. Main, Lumberton, TX 77657, Phone: +1-409-755-2501, Corporate #116, Fuel"
-94.1685066,30.1047886,H-E-B Plus! Beaumont 05,"3025 Dowlen Rd, Beaumont, TX 77706, Phone: +1-409-866-2007 Pharmacy +1-409-860-4212, Corporate #48, Fuel, Car Wash"
-96.2698901,29.1988509,H-E-B El Campo,"306 N. Mechanic St., El Campo, TX 77437, Phone: +1-979-578-8601 Pharmacy +1-979-578-8609, Corporate #584, Fuel, Car Wash"
-94.9511067,30.7101476,H-E-B Livingston (Pantry Foods),"1509 W. Church, Livingston, TX 77351, Phone: +1-936-327-6306, Corporate #339, Fuel"
-95.9578106,28.9827216,H-E-B Bay City,"2700 Seventh, Bay City, TX 77414, Phone: +1-979-245-2990 Pharmacy +1-979-245-1881, Corporate #292, Fuel, Car Wash"
-96.0837416,29.3217911,H-E-B Wharton,"1616 N. Alabama, Wharton, TX 77488, Phone: +1-979-282-2773 Pharmacy +1-979-282-2883, Corporate #233, Fuel"
-95.6483312,29.1454026,H-E-B West Columbia (Pantry Foods),"110 Brazos Ave., West Columbia, TX 77486, Phone: +1-979-345-6950, Corporate #271, Fuel"
-95.094881,30.33551,H-E-B Cleveland (Pantry Foods),"100 Truly Plaza, Cleveland, TX 77327, Phone: +1-281-592-0466, Corporate #257, Fuel"
-95.418278,29.1714617,H-E-B Angleton (Pantry Foods),"1239 E Mulberry St., Angleton, TX 77515, Phone: +1-979-849-1215, Corporate #17, Fuel"
-95.4656495,30.335499,H-E-B Conroe,"2108 North Frazier, Conroe, TX 77301, Phone: +1-936-756-1430 Pharmacy +1-936-756-1435, Corporate #595, Fuel, Car Wash"
-95.1074175,29.3798838,H-E-B Santa Fe (Pantry Foods),"4206 Avenue T, Santa Fe, TX 77510, Phone: +1-409-925-5186, Corporate #348"
-95.538063,30.1789548,H-E-B Woodlands 03 - Indian Springs,"10777 Kuykendahl Rd., Spring, TX 77382, Phone: +1-281-292-8006 Pharmacy +1-281-292-8026, Corporate #594, Fuel"
-95.466998,30.163596,H-E-B Woodlands 02,"9595 Six Pines Dr., The Woodlands, TX 77380, Phone: +1-281-292-2080 Pharmacy +1-281-292-3962, Corporate #579"
-95.6295794,30.0886107,H-E-B Tomball,"28520 Tomball Pkwy., Tomball, TX 77375, Phone: +1-281-255-2250 Pharmacy +1-281-351-1972, Corporate #574, Fuel, Car Wash"
-95.7758735,29.7131746,H-E-B Plus! Houston 50,"6711 South Fry Rd., Katy, TX 77494, Phone: +1-281-392-9500 Pharmacy +1-281-392-1188, Corporate #596, Fuel, Car Wash"
-95.0943212,29.466177,H-E-B Bay Colony,"2955 South Gulf Freeway, League City, TX 77573, Phone: +1-281-337-5142 Pharmacy +1-281-337-5210, Corporate #28, Fuel"
-95.750803,29.757978,H-E-B Houston 39,"1621 S. Mason Rd., Katy, TX 77450, Phone: +1-281-599-0045 Pharmacy +1-281-599-0958, Corporate #497, Fuel, Car Wash"
-95.4454193,30.127551,H-E-B Woodlands 01,"130 Sawdust Road, Spring, TX 77380, Phone: +1-281-364-7744 Pharmacy +1-281-292-0774, Corporate #564"
-95.2425104,29.409921,H-E-B Alvin (Pantry Foods),"207 E. South, Alvin, TX 77511, Phone: +1-281-585-5188, Corporate #288, Fuel"
-95.673157,29.957457,H-E-B Houston 53,"24224 Northwest Fwy., Cypress, TX 77429, Phone: +1-281-758-1100 Pharmacy +1-281-758-1155, Corporate #20, Fuel, Car Wash"
-95.7170009,29.7891601,H-E-B Houston 37,"1550 Fry Rd., Houston, TX 77084, Phone: +1-281-829-0126 Pharmacy +1-281-829-2565, Corporate #492, Fuel, Car Wash"
-95.183407,30.052207,H-E-B Kingwood,"4517 Kingwood Dr., Kingwood, TX 77345, Phone: +1-281-361-0342 Pharmacy +1-281-361-0083, Corporate #720, Fuel, Car Wash"
-95.1177439,29.5542871,H-E-B Clear Lake,"16811 El Camino Real, Houston, TX 77058, Phone: +1-281-488-1601, Corporate #572"
-95.164469,30.000139,H-E-B Atascocita,"7405 FM 1960 East, Humble, TX 77346, Phone: +1-281-812-4357 Pharmacy +1-281-812-4729, Corporate #498, Fuel, Car Wash"
-95.5766482,29.9966584,H-E-B Houston 52,"10919 Louetta Rd., Houston, TX 77070, Phone: +1-281-257-4600 Pharmacy +1-281-257-4655, Corporate #99, Fuel, Car Wash"
-95.1907962,29.5054393,H-E-B Friendswood,"701 West Parkwood, Friendswood, TX 77546, Phone: +1-281-996-9967 Pharmacy +1-281-996-9971, Corporate #558, Fuel, Car Wash"
-95.5247012,30.0205317,H-E-B Houston 47,"7310 Louetta Rd., Spring, TX 77379, Phone: +1-281-374-7727 Pharmacy +1-281-251-0255, Corporate #576, Fuel, Car Wash"
-95.6475728,29.8473119,H-E-B Houston 41,"4955 Hwy. 6 N., Houston, TX 77084, Phone: +1-281-859-9381 Pharmacy +1-281-463-9148, Corporate #553, Fuel"
-95.6411506,29.7040908,H-E-B Houston 46,"14498 Bellaire Blvd, Houston, TX 77083, Phone: +1-281-776-0143, Corporate #575, Fuel"
-95.1445616,29.6487845,H-E-B Pasadena 03,"6210 Fairmont Pkwy., Pasadena, TX 77505, Phone: +1-281-487-1946 Pharmacy +1-281-487-6170, Corporate #473, Fuel"
-95.5872904,29.7353591,H-E-B Houston 38,"11815 Westheimer, Houston, TX 77077, Phone: +1-281-531-8646 Pharmacy +1-281-497-8479, Corporate #551, Fuel"
-95.5599619,29.6909876,H-E-B Houston 43,"10100 Beechnut Street, Houston, TX 77072, Phone: +1-281-564-5201 Pharmacy +1-281-564-5209, Corporate #541"
-95.2502141,29.6017365,H-E-B Houston 49,"9828 Blackhawk Blvd., Houston, TX 77075, Phone: +1-713-991-2774 Pharmacy +1-713-991-3762, Corporate #54, Fuel"
-95.390825,29.559548,H-E-B Plus! Pearland,"2805 Business Center Dr., Pearland, TX 77584, Phone: +1-713-578-6100 Pharmacy +1-713-578-6155, Corporate #63, Fuel, Car Wash"
-95.5472103,29.8215303,H-E-B Houston 48,"10251 Kempwood Dr., Houston, TX 77043, Phone: +1-713-996-0009 Pharmacy +1-713-996-0449, Corporate #577, Fuel"
-95.295172,29.698429,H-E-B Houston 42,"3111 Woodridge, Houston, TX 77087, Phone: +1-713-847-0025 Pharmacy +1-713-847-0071, Corporate #540, Fuel"
-96.8724011,29.9066606,H-E-B La Grange,"450 East Travis Street, La Grange, TX 78945, Phone: +1-979-968-8381 Pharmacy +1-979-968-8677, Corporate #416, Fuel"
-96.53971,29.6945922,H-E-B Columbus (Pantry Foods),"2105 Milam, Columbus, TX 78934, Phone: +1-979-732-6253, Corporate #256"
-94.718994,31.337593,H-E-B Lufkin,"111 North Timberland Dr., Lufkin, TX 75901, Phone: +1-936-639-1358, Corporate #617"
-94.372614,32.159152,H-E-B Carthage (Pantry Foods),"419 NW Loop #436, Carthage, TX 75633, Phone: +1-903-693-4952, Corporate #458"
-96.3184485,30.6127299,H-E-B College Station,"1900 South Texas Ave., College Station, TX 77840, Phone: +1-979-693-0361 Pharmacy +1-979-693-1238, Corporate #543, Fuel, Car Wash"
-96.3506149,30.6437232,H-E-B Bryan 3,"725 East Villa Maria, Bryan, TX 77802, Phone: +1-979-779-8905 Pharmacy +1-979-822-1850, Corporate #544, Fuel"
-96.372033,30.690157,H-E-B Bryan 1 (Pantry Foods),"1609 N. Texas Ave., Bryan, TX 77803, Phone: +1-979-778-1077 Pharmacy +1-979-778-2074, Corporate #644, Fuel, Car Wash"
-95.437068,31.325739,H-E-B Crockett (Pantry Foods),"1035 Loop 304 East, Crockett, TX 75835, Phone: +1-936-544-5234, Corporate #287, Fuel"
-97.3940845,32.3473935,H-E-B Cleburne,"600 W. Henderson, Cleburne, TX 76033, Phone: +1-817-641-6203 Pharmacy +1-817-641-4036, Corporate #679, Fuel, Car Wash"
-96.840061,32.411883,H-E-B Waxahachie,"800 Hwy. 77, Waxahachie, TX 75165, Phone: +1-972-923-2283 Pharmacy +1-972-923-2297, Corporate #426, Fuel"
-96.6324648,32.3246279,H-E-B Ennis,"101 S. Clay St, Ennis, TX 75119, Phone: +1-972-875-7720 Pharmacy +1-972-875-8313, Corporate #107, Fuel"
-96.477723,31.684382,H-E-B Mexia,"701 E. Milam Street, Mexia, TX 76667, Phone: +1-254-562-5305 Pharmacy +1-254-562-5123, Corporate #467, Fuel"
-96.467733,32.090019,H-E-B Corsicana,"201 S. 15th Street, Corsicana, TX 75110, Phone: +1-903-874-4778 Pharmacy +1-903-874-6546, Corporate #238, Fuel"
-96.890347,31.306749,H-E-B Marlin,"435 Live Oak, Marlin, TX 76661, Phone: +1-254-803-5501, Corporate #104, Fuel, Car Wash"
-97.2201216,31.4954804,H-E-B Plus! Waco 05,"9100 Woodway Dr, Woodway, TX 76712, Phone: +1-254-751-0239 Pharmacy +1-254-751-0912, Corporate #583, Fuel, Car Wash"
-97.1884392,31.5337706,H-E-B Waco 08,"1301 Wooded Acres Dr., Waco, TX 76710, Phone: +1-254-776-7040 Pharmacy +1-254-776-1027, Corporate #423, Fuel"
-97.1075292,31.5872632,H‑E‑B Plus! Bellmead,"801 North IH 35, BELLMEAD, TX 76705, Phone: +1-254-799-0253 Pharmacy +1-254-799-0219, Corporate #557, Fuel, Car Wash"
-97.1720495,31.581006,H-E-B Waco 04,"3801 N. 19th St, Waco, TX 76708, Phone: +1-254-752-0359 Pharmacy +1-254-753-2226, Corporate #64, Fuel"
-97.3538933,31.1021706,H-E-B Temple 01,"1314 W. Adams Ave., Temple, TX 76504, Phone: +1-254-773-4145 Pharmacy +1-254-773-4585, Corporate #71, Fuel, Car Wash"
-97.3692097,31.0703435,H-E-B Temple 02,"3002 S. 31st St., Temple, TX 76502, Phone: +1-254-778-4820 Pharmacy +1-254-773-2177, Corporate #182"
-97.742897,31.435487,H-E-B Gatesville,"1207 E. Main St, Gatesville, TX 76528, Phone: +1-254-865-8491 Pharmacy +1-254-248-1781, Corporate #403, Fuel"
-97.457213,31.080389,H-E-B Plus! Belton,"2509 North Main St., Belton, TX 76513, Phone: +1-254-939-0856 Pharmacy +1-254-939-0843, Corporate #39, Fuel, Car Wash"
-98.430031,29.797329,H-E-B Plus! Bulverde,"20725 Hwy. 46 West, Bulverde, TX 78070, Phone: +1-830-438-3000 Pharmacy +1-830-438-4010, Corporate #622, Fuel, Car Wash"
-98.7347961,29.7816853,H-E-B Plus! Boerne,"420 W. Bandera, Boerne, TX 78006, Phone: +1-830-816-2394 Pharmacy +1-830-816-2093, Corporate #621, Fuel, Car Wash"
-99.1438395,30.0514399,H-E-B Kerrville on Main,"300 Main St, Kerrville, TX 78028, Phone: +1-830-896-3600 Pharmacy +1-830-896-0227, Corporate #89, Fuel"
-98.8754317,30.270051,H-E-B Fredericksburg,"407 South Adams, Fredericksburg, TX 78624, Phone: +1-830-997-9950 Pharmacy +1-830-997-8809, Corporate #561, Fuel"
-97.6547641,31.0787793,H-E-B Harker Heights,"601 Indian Trail, Harker Heights, TX 76548, Phone: +1-254-699-8411 Pharmacy +1-254-699-8810, Corporate #381, Fuel, Car Wash"
-97.7355407,31.0910026,H-E-B Plus! Killeen 03,"2511 Trimmier Rd,  Killeen,  TX 76542, Phone +1-254 526-9674 Pharmacy +1-254 634-2370, Corporate #581, Fuel, Car Wash"
-97.864668,31.11931,H-E-B Plus! Copperas Cove,"2990 East Hwy. 190, Copperas Cove, TX 76522, Phone: +1-254-547-6333 Pharmacy +1-254-547-9755, Corporate #668, Fuel, Car Wash"
-98.1798163,31.0619944,H-E-B Lampasas,"705 S Key Ave, Lampasas, TX 76550, Phone: +1-512-556-3461, Corporate #432, Fuel"
-98.4453009,30.658823,H-E-B Kingsland,"215 Ranch Rd, Kingsland, TX 78639, Phone: +1-325-388-4601, Corporate #587, Fuel"
-98.2227512,30.758743,H-E-B Burnet,"105 S Boundary St, Burnet, TX 78611, Phone: +1-512-756-6188 Pharmacy +1-512-715-0701, Corporate #433, Fuel"
-98.278484,30.5821288,H-E-B Marble Falls,"1503 Hwy 1431 West, Marble Falls, TX 78654, Phone: +1-830-693-3561 Pharmacy +1-830-693-4810, Corporate #735, Fuel"
-97.6523977,29.6805378,H-E-B Luling,"320 E Pierce St, Luling, TX 78648, Phone: +1-830-875-3831, Corporate #464"
-97.4170246,30.6004333,H-E-B Taylor,"100 N. W. Carlos G. Parker Blvd., Taylor, TX 76574, Phone: +1-512-352-2015 Pharmacy +1-512-352-2024, Corporate #593, Fuel, Car Wash"
-97.334095,30.110137,H-E-B Plus! Bastrop,"104 N Hasler Blvd, Bastrop, TX 78602, Phone: +1-512-321-1011 Pharmacy +1-512-321-1033, Corporate #582, Fuel, Car Wash"
-97.9431387,29.8832908,H-E-B San Marcos 02,"200 West Hopkins St., San Marcos, TX 78666, Phone: +1-512-396-0100 Pharmacy +1-512-396-0303, Corporate #455"
-97.9260912,29.8871773,H-E-B San Marcos 01,"641 East Hopkins Street, San Marcos, TX 78666, Phone: +1-512-396-8880 Pharmacy +1-512-396-2892, Corporate #243, Fuel, Car Wash"
-97.6703135,29.8818716,H-E-B Lockhart,"403 S Colorado St, Lockhart, TX 78644, Phone: +1-512-398-2301 Pharmacy +1-512-398-6797, Corporate #445, Fuel"
-97.7194542,30.6815356,H-E-B Georgetown 02,"4500 Williams Dr., Georgetown, TX 78628, Phone: +1-512-863-4427 Pharmacy +1-512-868-1273, Corporate #487, Fuel"
-97.6886757,30.6339853,H-E-B Georgetown 01,"1100 South IH 35, Georgetown, TX 78626, Phone: +1-512-930-5581 Pharmacy +1-512-869-4287, Corporate #237"
-97.38409,30.3460858,H-E-B Elgin,"1080 E. Hwy. 290, Elgin, TX 78621, Phone: +1-512-285-4168 Pharmacy +1-512-285-4719, Corporate #475, Fuel, Car Wash"
-97.8548245,30.5834003,H-E-B Plus! Leander,"651 N US Highway 183, Leander, TX 78641, Phone: +1-512-528-7700 Pharmacy +1-512-528-7777, Corporate #592, Fuel, Car Wash"
-97.861745,30.016109,H-E-B Plus! Kyle,"5401 South FM 1626, Kyle, TX 78640, Phone: +1-512-268-7900 Pharmacy +1-512-268-7955, Corporate #14, Fuel, Car Wash"
-97.7863732,30.5328994,H-E-B Austin 26,"2800 East Whitestone Blvd., Cedar Park, TX 78613, Phone: +1-512-528-0027 Pharmacy +1-512-528-0150, Corporate #580, Fuel, Car Wash"
-97.828581,30.522049,H-E-B Austin 14,"170 E. Whitestone Blvd, Cedar Park, TX 78613, Phone: +1-512-259-5500 Pharmacy +1-512-259-5755, Corporate #265, Fuel, Car Wash"
-97.6593718,30.5187479,H-E-B Plus! Round Rock 04,"1700 East Palm Valley Blvd, Round Rock, TX 78664, Phone: +1-512-388-2649 Pharmacy +1-512-255-0617, Corporate #591, Fuel"
-97.6151438,30.4984984,H-E-B Round Rock 01,"3750 Gattis School Rd., Round Rock, TX 78664, Phone: +1-512-341-3775 Pharmacy +1-512-341-3776, Corporate #34, Fuel, Car Wash"
-97.6592272,30.4810019,H-E-B Round Rock 03,"603 Louis Henna Blvd, Round Rock, TX 78664, Phone: +1-512-828-0806 Pharmacy +1-512-828-0814, Corporate #495, Fuel, Car Wash"
-97.7228513,30.5004326,H-E-B Round Rock 02,"16900 N. FM 620, Round Rock, TX 78681, Phone: +1-512-238-7909 Pharmacy +1-512-238-7905, Corporate #373, Fuel, Car Wash"
-97.6117841,30.4379657,H-E-B Pflugerville,"201 N. FM 685, Pflugerville, TX 78660, Phone: +1-512-251-0002 Pharmacy +1-512-251-9037, Corporate #479, Fuel, Car Wash"
-97.8214391,30.0878461,H-E-B Buda,"15300 S. IH-35, Buda, TX 78610, Phone: +1-512-312-1615 Pharmacy +1-512-312-0907, Corporate #477, Fuel"
-97.8262744,30.4549519,H-E-B Plus! Austin 27,"11521 North FM 620, Austin, TX 78726, Phone: +1-512-249-0558 Pharmacy +1-512-249-0577, Corporate #24, Fuel"
-97.9322403,30.30476,H-E-B Austin 21 - Bee Cave,"12400 West Highway 71, Bee Cave, TX 78738, Phone: +1-512-263-0528 Pharmacy +1-512-263-0561, Corporate #404, Fuel"
-97.6641459,30.4425715,H-E-B Austin 07,"1434 Wells Branch Pkwy, Pflugerville, TX 78660, Phone: +1-512-251-2584 Pharmacy +1-512-251-5286, Corporate #236, Fuel, Car Wash"
-97.8517445,30.4042887,H-E-B Austin 24,"7301 N FM 620, Austin, TX 78726, Phone: +1-512-336-7700 Pharmacy +1-512-336-7706, Corporate #451, Fuel"
-97.7425603,30.4415421,H-E-B Austin 20,"6001 W Parmer Lane, Austin, TX 78727, Phone: +1-512-249-0400 Pharmacy +1-512-249-8316, Corporate #388, Fuel"
-97.7725466,30.4343583,H-E-B Austin 05,"12860 Research Blvd, Austin, TX 78750, Phone: +1-512-506-9060 Pharmacy +1-512-506-9250, Corporate #31"
-97.887648,30.22889,H-E-B Austin,"7901 US-290, Austin, TX 78736, Phone: +1-512-288-5440 Pharmacy +1-512-288-5713, Corporate #765"
-97.7029236,30.4175535,H-E-B Austin 06,"12407 N. Mopac Expwy, Austin, TX 78758, Phone: +1-512-339-1181 Pharmacy +1-512-339-6644, Corporate #218"
-97.6720941,30.4053906,H-E-B Austin 25,"500 Canyon Ridge Dr, Austin, TX 78753, Phone: +1-512-973-8143 Pharmacy +1-512-973-8753, Corporate #476, Fuel"
-97.8753826,30.2004212,H-E-B Austin 28,"5800 W. Slaughter Ln., Austin, TX 78749, Phone: +1-512-301-9770 Pharmacy +1-512-301-9772, Corporate #68"
-97.7483006,30.3988118,H-E-B Austin 17,"10710 Research Blvd, Austin, TX 78759, Phone: +1-512-794-8221 Pharmacy +1-512-794-8227, Corporate #269"
-97.8251114,30.1751444,H-E-B Austin 11,"2110 W Slaughter Ln, Austin, TX 78748, Phone: +1-512-282-0182 Pharmacy +1-512-282-0990, Corporate #227, Fuel"
-97.8308253,30.2154037,H-E-B Austin 23,"6900 Brodie Ln, Austin, TX 78745, Phone: +1-512-891-8900 Pharmacy +1-512-891-8906, Corporate #428"
-97.6636655,30.3126121,H-E-B Austin 13,"7112 Ed Bluestein, Austin, TX 78723, Phone: +1-512-926-1491 Pharmacy +1-512-926-0586, Corporate #161"
-97.755277,30.352104,H-E-B Austin 04,"7015 Village Ctr Dr., Austin, TX 78731, Phone: +1-512-502-8445 Pharmacy +1-512-502-8801, Corporate #96"
-97.6979525,30.3645328,H-E-B Austin 15,"9414 N Lamar Blvd, Austin, TX 78753, Phone: +1-512-835-5400 Pharmacy +1-512-837-9580, Corporate #183, Fuel"
-97.7691048,30.1888211,H-E-B Austin 02,"6607 IH 35 S., Austin, TX 78744, Phone: +1-512-441-9266 Pharmacy +1-512-441-3692, Corporate #229"
-97.7411093,30.3344163,H-E-B Austin 09,"5808 Burnet Rd, Austin, TX 78756, Phone: +1-512-453-8864 Pharmacy +1-512-454-6691, Corporate #202"
-97.7199924,30.3003105,H-E-B Austin 03,"1000 East 41 St., Austin, TX 78751, Phone: +1-512-459-6513 Pharmacy +1-512-459-8308, Corporate #425"
-97.7230039,30.2356109,H-E-B Plus! Austin 12,"2508 E. Riverside, Austin, TX 78741, Phone: +1-512-448-3544 Pharmacy +1-512-448-3353, Corporate #91, Fuel, Car Wash"
-97.710535,30.2597845,H-E-B Austin 01,"2701 E 7th St, Austin, TX 78702, Phone: +1-512-478-7328 Pharmacy +1-512-478-8086, Corporate #465"
-97.751859,30.239079,H-E-B South Congress,"2301 S Congress Ave, Austin, TX 78704, Phone +1-737-610-6060 Pharmacy +1-512-442-1578, Corporate #755"
-97.1325784,32.9403003,Central Market Southlake,"1425 E. Southlake Blvd., Southlake, TX 76092, Phone: +1-817-310-5600 Catering: +1-817-310-5610"
-98.4646983,29.4706061,Central Market - San Antonio 02,"4821 Broadway, San Antonio, TX 78209, Phone: +1-210-368-8600 Pharmacy +1-210-824-0515 Catering: +1-210-368-8699"
-96.7669462,33.002005,Central Market Plano,"320 Coit Rd., Plano, TX 75075, Phone: +1-469-241-8300 Catering: +1-469-241-9336"
-97.3884632,32.731704,Central Market Fort Worth,"4651 West Fwy., Fort Worth, TX 76107, Phone: +1-817-989-4700 Catering: +1-817-377-9307"
-95.4439312,29.7410534,Central Market Houston,"3815 Westheimer Rd., Houston, TX 77027, Phone: +1-713-386-1700 Catering: +1-713-386-1750"
-96.7683314,32.8507014,Central Market Dallas,"5750 E. Lovers Ln., Dallas, TX 75206, Phone: +1-214-234-7000 Catering: +1-214-361-5577"
-97.7973978,30.2311496,Central Market Austin South,"4477 S. Lamar Blvd., Austin, TX 78745, Phone: +1-512-899-4300 Catering: +1-512-899-4343"
-97.7398362,30.3072602,Central Market Austin - North Lamar,"4001 N. Lamar Blvd., Austin, TX 78756, Phone: +1-512-206-1000 Catering: +1-512-206-1024"
-98.081346,30.190615,H-E-B Dripping Springs,"598 E. Hwy. US 290, Dripping Springs, TX 78620, Phone: +1-512-858-2972 Pharmacy +1-512-858-0314, Corporate #611, Fuel, Car Wash"
-97.8253,30.29171,H-E-B Austin 29,"701 S. Capital of Texas Hwy., Westlake Hills, TX 78746, Phone: +1-512-732-9930 Pharmacy +1-512-329-5184, Corporate #29"
-97.136439,31.523916,H-E-B Plus! Waco 01,"1821 South Valley Mills Dr., Waco, TX 76711, Phone: +1-254-710-9400 Pharmacy +1-254-757-3344, Corporate #672, Fuel, Car Wash"
-97.349463,32.519831,H-E-B Plus! Burleson,"165 N.W. John Jones Dr., Burleson, TX 76028, Phone: +1-817-447-7484 Pharmacy +1-817-447-3213, Corporate #16, Fuel, Car Wash"
-97.72899,32.45594,H-E-B Granbury,"3804 US Hwy. 377, Granbury, TX 76049, Phone: +1-817-579-2500 Pharmacy +1-817-579-2512, Corporate #631, Fuel, Car Wash"
-95.497548,30.3248,H-E-B Conroe Market,"3875 W. Davis St., Conroe, TX 77304, Phone: +1-936-760-6800 Pharmacy +1-936-760-6810, Corporate #660, Fuel, Car Wash"
-95.52033,30.227837,H-E-B Woodlands 04 North Woodlands Market,"3601 FM 1488, The Woodlands, TX 77384, Phone: +1-936-271-2730 Pharmacy +1-936-321-2748, Corporate #638, Fuel, Car Wash"
-95.197898,29.923464,H-E-B Summerwood Market,"12680 West Lake Houston Pkwy., Houston, TX 77044, Phone: +1-281-436-0987 Pharmacy +1-281-436-1969, Corporate #614, Fuel, Car Wash"
-95.449917,30.070301,H-E-B Spring Market,"2121 FM 2920, Spring, TX 77388, Phone: +1-281-907-7900 Pharmacy +1-281-907-7950, Corporate #610, Fuel, Car Wash"
-95.584762,29.911277,H-E-B Jones Road,"9503 Jones Rd., Houston, TX 77065, Phone: +1-281-894-5361 Pharmacy +1-281-894-5237, Corporate #657"
-95.402742,29.738599,H-E-B Montrose Market,"1701 W. Alabama St., Houston, TX 77098, Phone: +1-713-529-2475 Pharmacy +1-713-807-7293, Corporate #630"
-98.134827,29.357538,H-E-B La Vernia,"14414 US Hwy. 87 West, La Vernia, TX 78121, Phone +1-830-779-1790 Pharmacy +1-830-779-3109, Corporate #612, Fuel, Car Wash"
-98.581825,29.514754,H-E-B Pharmacy at the MARC,"8300 Floyd Curl Dr., San Antonio, TX 78229, Pharmacy: +1-210-593-0291, Pharmacy Offering compounding and medical equipment, Corporate #647"
-98.126976,29.688547,H-E-B New Braunfels,"651 South. Walnut Ave, New Braunfels, TX 78130, Phone: +1-830-608-0017 Pharmacy +1-830-609-1944, Corporate #380, Fuel, Car Wash"
-98.158974,29.715414,H-E-B New Braunfels 02,"1655 Highway 46 West, New Braunfels, TX 78132, Phone: +1-830-626-0937 Pharmacy +1-830-626-3348, Corporate #74"
-98.70452,29.493089,H-E-B San Antonio 40,"10660 West FM 471, San Antonio, TX 78251, Phone: +1-210-684-1019 Pharmacy +1-210-684-1234, Corporate #494, Fuel, Car Wash"
-96.803864,32.893674,Central Market - Dallas Preston Royal,"10720 Preston Rd., Dallas, TX 75230, Phone: +1-972-860-6500 Catering: +1-972-860-6510"
-95.745309,29.990911,H-E-B Fairfield Market,"28550 Hwy. 290, Cypress, TX 77433 Hwy 290 & Mason Rd., Phone: +1-281-256-6339 Pharmacy +1-281-256-6490, Corporate #656, Fuel, Car Wash"
-95.427548,29.72669,H-E-B Houston 51,"5225 Buffalo Speedway, Houston, TX 77005, Phone: +1-713-218-1800 Pharmacy +1-713-218-1850, Corporate #599"
-95.532352,29.785107,H-E-B Houston 54,"9710 Katy Freeway, Houston, TX 77055, Phone: +1-713-647-5900 Pharmacy +1-713-647-5950, Corporate #109, Fuel, Car Wash"
-95.820196,29.775227,H-E-B Katy Market,"25675 Nelson Way, Katy, TX 77494, Phone: +1-281-574-1800 Pharmacy +1-281-574-1808, Corporate #615, Fuel, Car Wash"
-95.581587,29.579681,H-E-B Houston 40,"4724 Hwy 6 N., Missouri City, TX 77459, Phone: +1-281-403-2172 Pharmacy +1-281-403-1861, Corporate #474, Fuel"
-95.645258,29.609599,H-E-B Sugar Land Market,"530 Hwy. 6, Sugar Land, TX 77478, Phone: +1-281-494-3690 Pharmacy +1-281-240-6370, Corporate #627, Fuel, Car Wash"
-95.537186,29.539775,H-E-B Houston 55,"8900 Hwy. 6, Missouri City, TX 77459, Phone: +1-281-778-1300 Pharmacy +1-281-778-1350, Corporate #110, Fuel, Car Wash"
-95.685715,29.562842,H-E-B Sugar Land - Riverpark,"19900 Southwest Fwy., Sugar Land, TX 77479, Phone: +1-281-239-2050 Pharmacy +1-281-239-2055, Corporate #563, Fuel"
-96.260224,30.557688,H-E-B Tower Point Market,"949 William D. Fitch Parkway, College Station, TX 77845, Phone: +1-979-690-4940 Pharmacy +1-979-690-4690, Corporate #619, Fuel, Car Wash"
-96.39759,30.14317,H-E-B Brenham Market,"2508 South Day Street, Brenham, TX 77833, Phone: +1-979-277-9858 Pharmacy +1-979-277-0906, Corporate #414"
-98.317413,26.258186,H-E-B Palmhurst,"120 E. Mile 3rd., Palmhurst, TX 78573, Phone: +1-956-580-7407 Pharmacy +1-956-583-3229, Corporate #674, Fuel, Car Wash"
-97.68833,30.559268,H-E-B Round Rock 05,"250 University Blvd., Round Rock, TX 78665, Phone: +1-512-864-8000 Pharmacy +1-512-863-9279, Corporate #673, Fuel, Car Wash"
-97.805565,30.477778,H-E-B Plus! Lakeline,"14028 N. US Hwy. 183, Austin, TX 78717, Phone: +1-512-249-9012 Pharmacy +1-512-249-9886, Corporate #659, Fuel, Car Wash"
-97.698976,30.303829,H-E-B Mueller,"1801 E. 51st Street, Austin, TX 78723, Phone: +1-512-474-2199 Pharmacy +1-512-474-2662, Corporate #639, Fuel"
-99.145178,30.041233,H-E-B Kerrville 02,"313 Sidney Baker,  Kerrville, TX 78028, Phone: +1-830-896-8030 Pharmacy +1-830-792-5465, Corporate #655"
-98.102532,30.001765,H-E-B Wimberley,"14501 RR 12, Wimberley, TX 78676, Phone: +1-512-842‑3700 Pharmacy +1-512-847‑3048, Corporate #708, Fuel"
-97.966742,30.344486,H-E-B Lakeway,"2000 Ranch Road 620 South, Lakeway, TX 78734, Phone: +1-512-599-5800 Pharmacy +1-512-263-8481, Corporate #714, Fuel, Car Wash"
-97.280178,29.08966,H‑E‑B Cuero,"909 E BROADWAY, CUERO, TX 77954, Phone: +1-361-275‑6144 Pharmacy +1-361-275‑8934, Corporate #712"
-98.390353,26.237655,H-E-B Palmview,"6010 W EXPRESSWAY 83, PALMVIEW, TX 78572-9139, Phone: +1-956-585-3161 Pharmacy: +1-956-585-3959, Corporate #448, fuel"
-102.37442,31.846055,H-E-B Pharmacy at Medical Center Hospital,"540 W. 5TH, ODESSA, TX 79761-5034, Pharmacy: +1-432-332-1623, Corporate #700"
-98.22496,26.18951,H-E-B South 2nd Street,"200 US Expressway 83, MCALLEN, TX 78501-2951, Phone: +1-956-630‑2913 Pharmacy +1-956-630‑2911, Corporate #702, Fuel"
-95.388065,30.108632,H-E-B Spring Creek Market,"3540 RAYFORD RD, SPRING, TX 77386-4343, Phone: +1-281-528-2380 Pharmacy: +1-281-353-2420, Corporate #705, Fuel, Car Wash"
-95.446048,29.041615,H-E-B Lake Jackson,"97 OYSTER CREEK DRIVE, LAKE JACKSON, TX 77566-4622, Phone: +1-979-297-1288 Pharmacy +1-979-299-0105, Corporate #707, Fuel, Car Wash"
-102.41083,31.860995,H-E-B University Blvd.,"2501 W UNIVERSITY BLVD, ODESSA, TX 79764, Phone: +1-432-368-8400 Pharmacy +1-432-332-0475, Corporate #711, Fuel"
-95.12704,29.60618,H-E-B Clear Lake Marketplace,"3501 CLEAR LAKE CITY BLVD, HOUSTON, TX 77059, Phone: +1-281-212-8800 Pharmacy +1-281-480-4721, Corporate #713, Fuel, Car Wash"
-95.09706,29.666827,H-E-B Deer Park,"4701 EAST BLVD, DEER PARK, TX 77536, Phone: +1-281-930-0326 Pharmacy +1-281-930-9366, Corporate #715, Fuel, Car Wash"
-102.1553,31.996097,H-E-B Midland Loop 250,"5407 ANDREWS HIGHWAY, MIDLAND, TX 79706, Phone: +1-432-699-8201 Pharmacy +1-432-699-2331, Corporate #717, Fuel"
-98.49658,29.419265,H-E-B South Flores Market,"516 S FLORES STREET, SAN ANTONIO, TX 78204-1217, Phone: +1-210-444-1879, Corporate #718, Fuel"
-95.48511,29.747981,H-E-B San Felipe,"5895 SAN FELIPE STREET, HOUSTON, TX 77057-3061, Phone: +1-713-278-8450 Pharmacy +1-713-278-8474, Corporate #687"
-94.94964,29.397149,H-E-B Texas City,"3502 PALMER HIGHWAY, TEXAS CITY, TX 77590-6548, Phone: +1-409-948-9500 Pharmacy +1-409-943-4249, Corporate #662, Fuel, Car Wash"
-98.07908,29.73066,H-E-B Plus! New Braunfels 3,"2965 IH35 NORTH, NEW BRAUNFELS, TX 78130, Phone: +1-830-312-5700 Pharmacy +1-830-620-5100, Corporate #694, Fuel, Car Wash"
-95.584718,30.221791,H-E-B Market at 1488,"7988 FM 1488, MAGNOLIA, TX 77354, Phone: +1-832-934-3400 Pharmacy +1-281-252-0069, Corporate #722, Fuel, Car Wash"
-97.582858,30.501257,H-E-B PLUS! Hutto,"5000 GATTIS SCHOOL RD., HUTTO, TX 78634, Phone: +1-737-484‑0700 Pharmacy +1-512-251‑3173, Corporate #696, FUEL, CAR WASH"
-98.3867237,29.5696327,H-E-B San Antonio 33,"14087 O'Connor Rd, San Antonio, TX 78217, Phone: +1-210-637-1313 Pharmacy +1-210-637-0033, Corporate #230, Fuel, Car Wash"
-98.49966,29.66276,H-E-B Market at Stone Oak,"23635 Wilderness Oak, San Antonio, TX 78258, Phone: +1-210-482-3300 Pharmacy +1-210-490-2677, Corporate #658"
-95.264667,29.558126,H-E-B Pearland,"2710 Pearland Pkwy FM 518, Pearland, TX 77584, Phone: +1-281-412-8700 Pharmacy +1-281-485-5047, Corporate #675, Fuel, Car Wash"
-95.549258,30.143766,H-E-B Creekside,"26500 KUYKENDAHL RD, TOMBALL, TX 77375-1478, Phone: +1-281-205-6500 Pharmacy +1-281-255-2248, Corporate #686, Fuel, Car Wash"
-94.128367,30.069436,H-E-B Beaumont 6,"3590 COLLEGE ST., BEAUMONT, TX 77701, Phone: +1-409-980-5800 Pharmacy +1-409-813-8452, Corporate #692, Fuel, Car Wash"
-95.039791,29.505002,H-E-B LEAGUE CITY,"2755 E.LEAGUE CITY PARKWAY, LEAGUE CITY, TX 77573-3360, Phone: +1-281-334-3758 Pharmacy +1-281-334-2012, Corporate #697, Fuel, Car Wash"
-95.638037,30.002801,H-E-B Cypress Grant Market,"14100 Spring Cypress Rd., Cypress, TX 77429, Phone: +1-281-320-3700 Pharmacy +1-281-376-2428, Corporate #698, Fuel, Car Wash"
-95.726249,29.926815,H-E-B Market at Tuckerton,"9722 FRY ROAD, CYPRESS, TX 77433, Phone: +1-281-205-6200 Pharmacy +1-281-373-2102, Corporate #709, Fuel, Car Wash"
-97.759277,31.078778,H-E-B Killeen,"1101 W  STAN SCHLUETER LOOP, KILLEEN, TX 76542, Phone: +1-254-226-3600 Pharmacy +1-254-519-2760, Corporate #721, Fuel, Car Wash"
-94.850726,29.827414,H-E-B MONT BELVIEU,"13401 I-10 EAST, MONT BELVIEU, TX 77523, Phone: +1-281-576-3500 Pharmacy +1-281-420-9300, Corporate #741, Fuel, Car Wash"
-94.977798,29.795463,H-E-B Baytown,"6430 GARTH ROAD, BAYTOWN, TX 77521, Phone: +1-281-421-5300 Pharmacy: +1-281-420-3800, Corporate #742, Fuel, Car Wash"
-95.501981,30.072939,H-E-B Market at Gosling,"5251 FM 2920, SPRING, TX 77388, Phone: +1-281-323-6400 Pharmacy +1-281-353-2982, Corporate #748, Fuel, Car Wash"
-97.69755,32.75821,H-E-B Hudson Oaks,"100 Hudson Oaks Drive, Hudson Oaks, TX 76087, Phone +1-817-599-1299 Pharmacy +1-817-599-6422, Corporate #752, Fuel, Car Wash"
-96.322471,30.582585,H-E-B Jones Crossing,"11675 Wellborn Rd, College Station, TX 77845, Phone +1-979- 680-3200 Pharmacy +1-979-485-8111, Corporate #746, Fuel, Car Wash"
-95.84671,29.71911,H-E-B Cross Creek Ranch,"4950 FM 1463, KATY,TX 77494 Phone:+1-346-387-7200 Pharmacy:+1-346-387-7000 Corporate #736, Fuel, Car   wash"
-95.74834,29.55073,H-E-B Richmond Market,"23500 BERRY PKWY, RICHMOND,TX 77469 Phone:+1-832-595-5337 Pharmacy:+1-281-239-3731 Corporate #727"
-95.396564,29.769073,H-E-B Washington Heights,"3663 WASHINGTON AVE., HOUSTON, TX 77007, Phone +1-832-673-3100 Pharmacy +1-713-426-1961, Corporate #744"
-95.377157,29.714196,H-E-B MacGregor Market,"6055 SOUTH FREEWAY, HOUSTON, TX 77004, Phone +1-713-285-2600 Pharmacy +1-713-522-2100, Corporate #756"
-95.426197,30.208149,H-E-B Harper's Trace,"10200 HIGHWAY 242, CONROE, TX 77385, Phone +1-936-266-1100 Pharmacy +1-936-525-1200, Corporate #757, Fuel, Car Wash"
-95.249824,30.069698,H-E-B Market at Northpark,"19529 Northpark Dr, Kingwood, TX 77339, Phone +1-281-312-8889 Pharmacy +1-281-312-1364  Corporate #759, Fuel, Car Wash"
-95.575647,30.055209,H-E-B Champion Forest Market,"20311 CHAMPION FOREST DRIVE, SPRING, TX 77379 Phone: +1-832-717-5600 Pharmacy: +1-281-376-2652, Corporate #725, Fuel, Car Wash"
-95.713861,29.659309,H-E-B Aliana Market,"10161 W GRAND PARKWAY S., RICHMOND, TX 77407 Phone: +1-281-295-3300 Pharmacy: +1-281-612-5892, Corporate #724, Fuel, Car Wash"
-95.560295,30.721997,H-E-B Huntsville,"1702 11TH ST., HUNTSVILLE, TX 77340 Phone: +1-936-291-6994 Pharmacy: +1-936-291-0302, Corporate #728, Fuel, Car Wash"
-98.41837,29.596241,H-E-B Bulverde & 1604,"17238 BULVERDE ROAD, SAN ANTONIO, TX 78247 Phone: +1-210-642-4700 Pharmacy: +1-210-495-0572, Corporate #732, Fuel, Car Wash"
-98.731213,29.485125,H-E-B ALAMO RANCH,"12125 ALAMO RANCH PKWY, SAN ANTONIO, TX 78253 Phone: +1-210-963-3102 Pharmacy: +1-210-688-9584, Corporate #733, Fuel, Car Wash"
-100.510955,31.430392,H-E-B Sherwood Way,"5502 SHERWOOD WAY, SAN ANGELO, TX 76901 Phone: +1-325-223-3101 Pharmacy: +1-32-223-0771, Corporate #734, Fuel, Car Wash"
-95.469616,29.707557,H-E-B BELLAIRE MARKET,"5106 BISSONNE, BELLAIRE, TX 77401-4019 Phone: +1-713-218-1600 Pharmacy: +1-713-662-2000, Corporate #738"
-95.464278,29.68885,H-E-B Meyerland Market,"4955 BEECHNUT STREET HOUSTON, TX 77096, Phone: +1-713-662-4000 Pharmacy Phone: +1-713-664-4700 Corporate #745"
-97.786498,30.16939,H-E-B The Oaks,"8801 S Congress Ave, Austin, TX 78745, Phone: +1-737-236-8348 Pharmacy +1-512-292-8662, Corporate #710"
-95.41019,29.807427,H-E-B The Heights,"2300 N. SHEPHERD DR., HOUSTON, TX 77008 Phone: +1-713-802-8100 Pharmacy: +1-713-869-1700, Corporate #737"
-95.8154,29.69612,H-E-B Spring Green Market,"9211 Farm to Market Rd 723, Richmond, TX 77406, Phone: +1-346-239-3500 Pharmacy: +1-281-232-5500, Corporate #749"
-96.837003,32.865541,Central Market - DALLAS MIDWAY,"4349 W Northwest Hwy, DAllas, TX 75220, Phone: +1-469-697-7800 CATERING +1-469-697-7820"
-101.905936,33.489476,H-E-B Lubbock,"4405 114th St., Lubbock, TX 79424, Phone: +1-806-698-5900  Pharmacy +1-806-698-6828,  Corporate #772, Fuel, Car Wash"
-98.781657,29.421968,H-E-B San Antonio,"14325 Potranco Rd., San Antonio, TX 78253, Phone: +1-210-688-4662 Pharmacy +1-210-257-2827, Corporate #771, Fuel, Car Wash"
-95.149047,29.552662,H-E-B El Dorado,"18611 Eastfield Dr. Webster, TX 77598 Phone: +1-281-488-1601 Pharmacy: +1-281-488-0179, Corporate #769, Fuel, Car Wash"
-97.825679,30.633009,H-E-B Ronald Regan Blvd,"19348 Ronald W. Regan Blvd, Leander TX 78641 Phone: +1-512-843-4902 Pharmacy: +1-512-819-4646, Corporate #774"
-96.846135,33.15419,H-E-B Frisco,"4800 MAIN STREET, FRISCO, TX 75033 Phone: +1-469-473-4419 Pharmacy: +1-972-377-2261, Corporate #789, Fuel, Car Wash"
-96.796692,33.055717,H-E-B Plano,"6001 Preston Rd., Plano, TX 75093 Phone: +1-469-395-0660 Pharmacy: +1-972-943-0730, Corporate #790, Fuel, Car Wash"
-95.48836,30.419889,H-E-B Willis,"12350 INTERSTATE 45 N, WILLIS, TX 77378-9999, Phone: +1-936-272-2000 Pharmacy: +1-936-272-1027, Corporate #791, Fuel, Car Wash"
